KUIPER-00061            
1 64521U 25134X   25343.00747339  .00005231  00000+0  70936-3 0  9991
2 64521  51.9006 269.0488 0005148 344.1661  15.9140 14.80251050 26702
KUIPER-00062            
1 64522U 25134Y   25343.18364686 -.00000855  00000+0 -72070-4 0  9992
2 64522  51.8985 273.3949 0007074   2.4742 357.6256 14.85025139 26674
KUIPER-00063            
1 64523U 25134Z   25343.19188482  .00009046  00000+0  12014-2 0  9991
2 64523  51.9031 278.1553 0003043 320.4564  39.6176 14.80377211 26606
KUIPER-00064            
1 64524U 25134AA  25343.06993540  .00002284  00000+0  32856-3 0  9991
2 64524  51.9030 276.2188 0008309  56.4807 303.6949 14.79946100 26626
KUIPER-00065            
1 64525U 25134AB  25343.14305658  .00005138  00000+0  75342-3 0  9996
2 64525  51.9032 281.1628 0010687 343.4964  16.5648 14.76905080 26544
KUIPER-00066            
1 64526U 25134AC  25343.22119318  .00026447  00000+0  11977-2 0  9991
2 64526  51.8868 251.2503 0001116  84.7473 275.3634 15.20693539 26989
KUIPER-00069            
1 64816U 25151A   25343.15635244  .00005681  00000+0  77198-3 0  9990
2 64816  51.9026 320.9470 0006783 348.1735  11.9068 14.80016598 23350
KUIPER-00070            
1 64817U 25151B   25343.29834325  .00004243  00000+0  58506-3 0  9992
2 64817  51.9007 345.2751 0009975 316.5256  43.4919 14.79933510 23035
