<?xml version="1.0" encoding="UTF-8"?>
<ndm xmlns:xsi="http://www.w3.org/2001/XMLSchema-instance" xsi:noNamespaceSchemaLocation="https://sanaregistry.org/r/ndmxml_unqualified/ndmxml-2.0.0-master-2.0.xsd">
<omm id="CCSDS_OMM_VERS" version="2.0">
<header><CREATION_DATE/><ORIGINATOR/></header><body><segment><metadata><OBJECT_NAME>KUIPER-00061</OBJECT_NAME><OBJECT_ID>2025-134X</OBJECT_ID><CENTER_NAME>EARTH</CENTER_NAME><REF_FRAME>TEME</REF_FRAME><TIME_SYSTEM>UTC</TIME_SYSTEM><MEAN_ELEMENT_THEORY>SGP4</MEAN_ELEMENT_THEORY></metadata><data><meanElements><EPOCH>2025-12-09T00:10:45.700896</EPOCH><MEAN_MOTION>14.80251050</MEAN_MOTION><ECCENTRICITY>.00051487</ECCENTRICITY><INCLINATION>51.9006</INCLINATION><RA_OF_ASC_NODE>269.0488</RA_OF_ASC_NODE><ARG_OF_PERICENTER>344.1661</ARG_OF_PERICENTER><MEAN_ANOMALY>15.9140</MEAN_ANOMALY></meanElements><tleParameters><EPHEMERIS_TYPE>0</EPHEMERIS_TYPE><CLASSIFICATION_TYPE>U</CLASSIFICATION_TYPE><NORAD_CAT_ID>64521</NORAD_CAT_ID><ELEMENT_SET_NO>999</ELEMENT_SET_NO><REV_AT_EPOCH>2670</REV_AT_EPOCH><BSTAR>.70935943E-3</BSTAR><MEAN_MOTION_DOT>.5231E-4</MEAN_MOTION_DOT><MEAN_MOTION_DDOT>0</MEAN_MOTION_DDOT></tleParameters></data></segment></body></omm>
<omm id="CCSDS_OMM_VERS" version="2.0">
<header><CREATION_DATE/><ORIGINATOR/></header><body><segment><metadata><OBJECT_NAME>KUIPER-00062</OBJECT_NAME><OBJECT_ID>2025-134Y</OBJECT_ID><CENTER_NAME>EARTH</CENTER_NAME><REF_FRAME>TEME</REF_FRAME><TIME_SYSTEM>UTC</TIME_SYSTEM><MEAN_ELEMENT_THEORY>SGP4</MEAN_ELEMENT_THEORY></metadata><data><meanElements><EPOCH>2025-12-09T04:24:27.088704</EPOCH><MEAN_MOTION>14.85025139</MEAN_MOTION><ECCENTRICITY>.0007074</ECCENTRICITY><INCLINATION>51.8985</INCLINATION><RA_OF_ASC_NODE>273.3949</RA_OF_ASC_NODE><ARG_OF_PERICENTER>2.4742</ARG_OF_PERICENTER><MEAN_ANOMALY>357.6256</MEAN_ANOMALY></meanElements><tleParameters><EPHEMERIS_TYPE>0</EPHEMERIS_TYPE><CLASSIFICATION_TYPE>U</CLASSIFICATION_TYPE><NORAD_CAT_ID>64522</NORAD_CAT_ID><ELEMENT_SET_NO>999</ELEMENT_SET_NO><REV_AT_EPOCH>2667</REV_AT_EPOCH><BSTAR>-.72069975E-4</BSTAR><MEAN_MOTION_DOT>-.855E-5</MEAN_MOTION_DOT><MEAN_MOTION_DDOT>0</MEAN_MOTION_DDOT></tleParameters></data></segment></body></omm>
<omm id="CCSDS_OMM_VERS" version="2.0">
<header><CREATION_DATE/><ORIGINATOR/></header><body><segment><metadata><OBJECT_NAME>KUIPER-00063</OBJECT_NAME><OBJECT_ID>2025-134Z</OBJECT_ID><CENTER_NAME>EARTH</CENTER_NAME><REF_FRAME>TEME</REF_FRAME><TIME_SYSTEM>UTC</TIME_SYSTEM><MEAN_ELEMENT_THEORY>SGP4</MEAN_ELEMENT_THEORY></metadata><data><meanElements><EPOCH>2025-12-09T04:36:18.848448</EPOCH><MEAN_MOTION>14.80377211</MEAN_MOTION><ECCENTRICITY>.00030436</ECCENTRICITY><INCLINATION>51.9031</INCLINATION><RA_OF_ASC_NODE>278.1553</RA_OF_ASC_NODE><ARG_OF_PERICENTER>320.4564</ARG_OF_PERICENTER><MEAN_ANOMALY>39.6176</MEAN_ANOMALY></meanElements><tleParameters><EPHEMERIS_TYPE>0</EPHEMERIS_TYPE><CLASSIFICATION_TYPE>U</CLASSIFICATION_TYPE><NORAD_CAT_ID>64523</NORAD_CAT_ID><ELEMENT_SET_NO>999</ELEMENT_SET_NO><REV_AT_EPOCH>2660</REV_AT_EPOCH><BSTAR>.12013667E-2</BSTAR><MEAN_MOTION_DOT>.9046E-4</MEAN_MOTION_DOT><MEAN_MOTION_DDOT>0</MEAN_MOTION_DDOT></tleParameters></data></segment></body></omm>
<omm id="CCSDS_OMM_VERS" version="2.0">
<header><CREATION_DATE/><ORIGINATOR/></header><body><segment><metadata><OBJECT_NAME>KUIPER-00064</OBJECT_NAME><OBJECT_ID>2025-134AA</OBJECT_ID><CENTER_NAME>EARTH</CENTER_NAME><REF_FRAME>TEME</REF_FRAME><TIME_SYSTEM>UTC</TIME_SYSTEM><MEAN_ELEMENT_THEORY>SGP4</MEAN_ELEMENT_THEORY></metadata><data><meanElements><EPOCH>2025-12-09T01:40:42.418560</EPOCH><MEAN_MOTION>14.79946100</MEAN_MOTION><ECCENTRICITY>.00083096</ECCENTRICITY><INCLINATION>51.9030</INCLINATION><RA_OF_ASC_NODE>276.2188</RA_OF_ASC_NODE><ARG_OF_PERICENTER>56.4807</ARG_OF_PERICENTER><MEAN_ANOMALY>303.6949</MEAN_ANOMALY></meanElements><tleParameters><EPHEMERIS_TYPE>0</EPHEMERIS_TYPE><CLASSIFICATION_TYPE>U</CLASSIFICATION_TYPE><NORAD_CAT_ID>64524</NORAD_CAT_ID><ELEMENT_SET_NO>999</ELEMENT_SET_NO><REV_AT_EPOCH>2662</REV_AT_EPOCH><BSTAR>.3285567E-3</BSTAR><MEAN_MOTION_DOT>.2284E-4</MEAN_MOTION_DOT><MEAN_MOTION_DDOT>0</MEAN_MOTION_DDOT></tleParameters></data></segment></body></omm>
<omm id="CCSDS_OMM_VERS" version="2.0">
<header><CREATION_DATE/><ORIGINATOR/></header><body><segment><metadata><OBJECT_NAME>KUIPER-00065</OBJECT_NAME><OBJECT_ID>2025-134AB</OBJECT_ID><CENTER_NAME>EARTH</CENTER_NAME><REF_FRAME>TEME</REF_FRAME><TIME_SYSTEM>UTC</TIME_SYSTEM><MEAN_ELEMENT_THEORY>SGP4</MEAN_ELEMENT_THEORY></metadata><data><meanElements><EPOCH>2025-12-09T03:26:00.088512</EPOCH><MEAN_MOTION>14.76905080</MEAN_MOTION><ECCENTRICITY>.0010687</ECCENTRICITY><INCLINATION>51.9032</INCLINATION><RA_OF_ASC_NODE>281.1628</RA_OF_ASC_NODE><ARG_OF_PERICENTER>343.4964</ARG_OF_PERICENTER><MEAN_ANOMALY>16.5648</MEAN_ANOMALY></meanElements><tleParameters><EPHEMERIS_TYPE>0</EPHEMERIS_TYPE><CLASSIFICATION_TYPE>U</CLASSIFICATION_TYPE><NORAD_CAT_ID>64525</NORAD_CAT_ID><ELEMENT_SET_NO>999</ELEMENT_SET_NO><REV_AT_EPOCH>2654</REV_AT_EPOCH><BSTAR>.75341964E-3</BSTAR><MEAN_MOTION_DOT>.5138E-4</MEAN_MOTION_DOT><MEAN_MOTION_DDOT>0</MEAN_MOTION_DDOT></tleParameters></data></segment></body></omm>
<omm id="CCSDS_OMM_VERS" version="2.0">
<header><CREATION_DATE/><ORIGINATOR/></header><body><segment><metadata><OBJECT_NAME>KUIPER-00066</OBJECT_NAME><OBJECT_ID>2025-134AC</OBJECT_ID><CENTER_NAME>EARTH</CENTER_NAME><REF_FRAME>TEME</REF_FRAME><TIME_SYSTEM>UTC</TIME_SYSTEM><MEAN_ELEMENT_THEORY>SGP4</MEAN_ELEMENT_THEORY></metadata><data><meanElements><EPOCH>2025-12-09T05:18:31.090752</EPOCH><MEAN_MOTION>15.20693539</MEAN_MOTION><ECCENTRICITY>.00011162</ECCENTRICITY><INCLINATION>51.8868</INCLINATION><RA_OF_ASC_NODE>251.2503</RA_OF_ASC_NODE><ARG_OF_PERICENTER>84.7473</ARG_OF_PERICENTER><MEAN_ANOMALY>275.3634</MEAN_ANOMALY></meanElements><tleParameters><EPHEMERIS_TYPE>0</EPHEMERIS_TYPE><CLASSIFICATION_TYPE>U</CLASSIFICATION_TYPE><NORAD_CAT_ID>64526</NORAD_CAT_ID><ELEMENT_SET_NO>999</ELEMENT_SET_NO><REV_AT_EPOCH>2698</REV_AT_EPOCH><BSTAR>.11977343E-2</BSTAR><MEAN_MOTION_DOT>.26447E-3</MEAN_MOTION_DOT><MEAN_MOTION_DDOT>0</MEAN_MOTION_DDOT></tleParameters></data></segment></body></omm>
<omm id="CCSDS_OMM_VERS" version="2.0">
<header><CREATION_DATE/><ORIGINATOR/></header><body><segment><metadata><OBJECT_NAME>KUIPER-00069</OBJECT_NAME><OBJECT_ID>2025-151A</OBJECT_ID><CENTER_NAME>EARTH</CENTER_NAME><REF_FRAME>TEME</REF_FRAME><TIME_SYSTEM>UTC</TIME_SYSTEM><MEAN_ELEMENT_THEORY>SGP4</MEAN_ELEMENT_THEORY></metadata><data><meanElements><EPOCH>2025-12-09T03:45:08.850816</EPOCH><MEAN_MOTION>14.80016598</MEAN_MOTION><ECCENTRICITY>.00067836</ECCENTRICITY><INCLINATION>51.9026</INCLINATION><RA_OF_ASC_NODE>320.9470</RA_OF_ASC_NODE><ARG_OF_PERICENTER>348.1735</ARG_OF_PERICENTER><MEAN_ANOMALY>11.9068</MEAN_ANOMALY></meanElements><tleParameters><EPHEMERIS_TYPE>0</EPHEMERIS_TYPE><CLASSIFICATION_TYPE>U</CLASSIFICATION_TYPE><NORAD_CAT_ID>64816</NORAD_CAT_ID><ELEMENT_SET_NO>999</ELEMENT_SET_NO><REV_AT_EPOCH>2335</REV_AT_EPOCH><BSTAR>.77197971E-3</BSTAR><MEAN_MOTION_DOT>.5681E-4</MEAN_MOTION_DOT><MEAN_MOTION_DDOT>0</MEAN_MOTION_DDOT></tleParameters></data></segment></body></omm>
<omm id="CCSDS_OMM_VERS" version="2.0">
<header><CREATION_DATE/><ORIGINATOR/></header><body><segment><metadata><OBJECT_NAME>KUIPER-00070</OBJECT_NAME><OBJECT_ID>2025-151B</OBJECT_ID><CENTER_NAME>EARTH</CENTER_NAME><REF_FRAME>TEME</REF_FRAME><TIME_SYSTEM>UTC</TIME_SYSTEM><MEAN_ELEMENT_THEORY>SGP4</MEAN_ELEMENT_THEORY></metadata><data><meanElements><EPOCH>2025-12-09T07:09:36.856800</EPOCH><MEAN_MOTION>14.79933510</MEAN_MOTION><ECCENTRICITY>.00099754</ECCENTRICITY><INCLINATION>51.9007</INCLINATION><RA_OF_ASC_NODE>345.2751</RA_OF_ASC_NODE><ARG_OF_PERICENTER>316.5256</ARG_OF_PERICENTER><MEAN_ANOMALY>43.4919</MEAN_ANOMALY></meanElements><tleParameters><EPHEMERIS_TYPE>0</EPHEMERIS_TYPE><CLASSIFICATION_TYPE>U</CLASSIFICATION_TYPE><NORAD_CAT_ID>64817</NORAD_CAT_ID><ELEMENT_SET_NO>999</ELEMENT_SET_NO><REV_AT_EPOCH>2303</REV_AT_EPOCH><BSTAR>.58505598E-3</BSTAR><MEAN_MOTION_DOT>.4243E-4</MEAN_MOTION_DOT><MEAN_MOTION_DDOT>0</MEAN_MOTION_DDOT></tleParameters></data></segment></body></omm>

</ndm>
